OPS 6582 (TRANSIT 5B-5) 
1 00965U 64083D   22319.59715887  .00000070  00000+0  85234-4 0  9990
2 00965  90.0319 195.9239 0042048 144.9425 278.1451 13.56793864866010
OSCAR 7 (AO-7)          
1 07530U 74089B   22319.57364300 -.00000030  00000+0  99895-4 0  9995
2 07530 101.9250 300.0204 0012399 111.5514   3.4533 12.53658558196402
UOSAT 2 (UO-11)         
1 14781U 84021B   22319.50858644  .00001033  00000+0  13021-3 0  9999
2 14781  97.6342 300.2076 0008259 174.1124 186.0189 14.83971914 62442
NOAA 9                  
1 15427U 84123A   22319.85326896  .00000127  00000+0  87153-4 0  9998
2 15427  99.0661 294.7559 0015798  95.8247 323.4003 14.16245293958271
LUSAT (LO-19)           
1 20442U 90005G   22319.46927447  .00000149  00000+0  71100-4 0  9992
2 20442  98.8159 286.7900 0012852  85.8606 274.4046 14.33112901714731
ITAMSAT (IO-26)         
1 22826U 93061D   22319.54546829  .00000097  00000+0  54871-4 0  9993
2 22826  98.8663 353.5403 0008273 323.1853  36.8759 14.30560553520018
RADIO ROSTO (RS-15)     
1 23439U 94085A   22319.52483696 -.00000039  00000+0  10000-3 0  9993
2 23439  64.8146 261.2666 0167423 246.9257 111.3937 11.27573370148520
JAS-2 (FO-29)           
1 24278U 96046B   22319.57128368 -.00000017  00000+0  21408-4 0  9992
2 24278  98.5143 322.4535 0349279 251.1143 105.1829 13.53124353296047
NOAA 15                 
1 25338U 98030A   22319.75040085  .00000132  00000+0  73403-4 0  9993
2 25338  98.6307 347.2150 0009828 211.4615 148.5979 14.26196502274838
TECHSAT 1B (GO-32)      
1 25397U 98043D   22319.45116855  .00000088  00000+0  58123-4 0  9990
2 25397  98.8381 270.4453 0002122  57.2397 302.8986 14.23787930264912
ISS (ZARYA)             
1 25544U 98067A   22319.90680528  .00010313  00000+0  18817-3 0  9990
2 25544  51.6437 304.9926 0006899  77.7150   6.3579 15.50029035368715
ORSTED                  
1 25635U 99008B   22319.49276865  .00000373  00000+0  94850-4 0  9993
2 25635  96.4429 148.9417 0139428  59.4074 302.0793 14.48599629252142
PHASE 3D (AO-40)        
1 26609U 00072B   22317.46377562 -.00000011  00000+0  00000+0 0  9998
2 26609   5.4677 232.5277 7969011  81.2160 352.1801  1.25588744101021
PCSAT (NO-44)           
1 26931U 01043C   22319.51707152  .00000118  00000+0  76602-4 0  9998
2 26931  67.0531  28.4634 0005231 265.6872  94.3632 14.30763640103015
SAUDISAT 1C (SO-50)     
1 27607U 02058C   22319.38873325  .00000766  00000+0  12461-3 0  9998
2 27607  64.5543 199.9334 0081306 265.7523  93.4285 14.76415154 70654
CUTE-1 (CO-55)          
1 27844U 03031E   22319.51469687  .00000295  00000+0  15157-3 0  9992
2 27844  98.6803 324.9399 0010345  30.3847 329.7929 14.22539825  5353
CUBESAT XI-IV (CO-57)   
1 27848U 03031J   22319.52523964  .00000246  00000+0  13063-3 0  9996
2 27848  98.6844 325.4349 0010485  43.9338 316.2672 14.22084606  5182
MOZHAYETS 4 (RS-22)     
1 27939U 03042A   22319.90637763  .00001014  00000+0  18700-3 0  9991
2 27939  98.2142 100.8067 0013944  90.8032 269.4776 14.67616907 23253
INMARSAT 4-F1           
1 28628U 05009A   22319.70149227 -.00000248  00000+0  00000+0 0  9992
2 28628   3.7265  36.5549 0003069 205.1042 209.1668  1.00271800 64534
NOAA 18                 
1 28654U 05018A   22319.76567132  .00000166  00000+0  11334-3 0  9990
2 28654  98.9349  29.9748 0013303 262.9171  97.0488 14.12807426901434
CUBESAT XI-V            
1 28895U 05043F   22319.58504567  .00001152  00000+0  22516-3 0  9998
2 28895  98.1273  88.8423 0016988  29.3726 330.8429 14.64660835909761
METOP-A                 
1 29499U 06044A   22319.74697616  .00001398  00000+0  19350-3 0  9991
2 29499  98.4333   9.0583 0195781 253.4536 216.6395 14.67581032835712
CARTOSAT-2 (IRS-P7)     
1 29710U 07001B   22319.33812292  .00023979  00000+0  52869-3 0  9996
2 29710  97.8762  74.1570 0135805 246.3074 112.3868 15.34636194859331
FALCONSAT-3             
1 30776U 07006E   22319.35974312  .00127308  00000+0  91949-3 0  9992
2 30776  35.4279 341.9338 0005801 161.8257 198.2689 15.72118145873163
CAPE-1                  
1 31130U 07012P   22319.36700756  .00000823  00000+0  18132-3 0  9999
2 31130  98.2841 258.9915 0094331 184.9069 175.1214 14.57421716827071
CARTOSAT-2A             
1 32783U 08021A   22319.72890659  .00000600  00000+0  88757-4 0  9991
2 32783  97.9472  18.2824 0013397  43.8075 316.4200 14.78680333785377
CUTE-1.7+APD II (CO-65) 
1 32785U 08021C   22319.47885358  .00002154  00000+0  22725-3 0  9993
2 32785  97.6786 285.7517 0014383  92.3968 267.8897 14.90233505788979
COMPASS-1               
1 32787U 08021E   22319.51480992  .00004244  00000+0  37237-3 0  9991
2 32787  97.5808 296.5730 0012107   9.2529 350.8914 14.97086989790643
AAUSAT-II               
1 32788U 08021F   22319.39217775  .00005038  00000+0  42020-3 0  9993
2 32788  97.5505 299.6132 0011003 345.5833  14.5075 14.98974386791030
DELFI-C3 (DO-64)        
1 32789U 08021G   22319.55318597  .00015692  00000+0  77323-3 0  9997
2 32789  97.3282 340.6694 0010381 146.9710 213.2174 15.17985630794819
SEEDS II (CO-66)        
1 32791U 08021J   22319.16824901  .00003075  00000+0  29599-3 0  9992
2 32791  97.6313 290.7946 0014173  52.1885 308.0615 14.93616003789768
YUBILEINY (RS-30)       
1 32953U 08025A   22319.84664726  .00000024  00000+0  10000-3 0  9996
2 32953  82.5004  89.7838 0018616 289.9489  69.9586 12.43115243657149
FENGYUN 3A              
1 32958U 08026A   22319.88510893  .00000112  00000+0  74355-4 0  9993
2 32958  98.5248 276.4739 0007924 310.9672  49.0818 14.18761619749805
PRISM (HITOMI)          
1 33493U 09002B   22319.52397433  .00005736  00000+0  44780-3 0  9992
2 33493  98.2519 314.9869 0017814  45.6154 314.6524 15.01445548751638
STARS (KUKAI)           
1 33498U 09002G   22319.47194839  .00001822  00000+0  24518-3 0  9995
2 33498  98.1500 213.9109 0011698 120.2014 240.0357 14.80468446743776
KKS-1 (KISEKI)          
1 33499U 09002H   22319.74428358  .00000989  00000+0  15036-3 0  9990
2 33499  98.1949 204.1274 0008645 182.7042 177.4122 14.76272073742991
NOAA 19                 
1 33591U 09005A   22319.85513428  .00000145  00000+0  10302-3 0  9996
2 33591  99.1316 357.0595 0014722 121.2813 238.9802 14.12638224709821
SWISSCUBE               
1 35932U 09051B   22319.60210958  .00000813  00000+0  19128-3 0  9990
2 35932  98.5466 179.6258 0006715 310.2285  49.8324 14.57079040698145
BEESAT-1                
1 35933U 09051C   22319.55665399  .00000701  00000+0  16646-3 0  9996
2 35933  98.5399 181.0975 0005127 327.1050  32.9828 14.57068480698178
ITUPSAT1                
1 35935U 09051E   22319.32355043  .00000626  00000+0  15278-3 0  9991
2 35935  98.5501 180.8734 0007488 328.5264  31.5484 14.56161992697835
XIWANG-1 (HOPE-1)       
1 36122U 09072B   22319.51777983 -.00000035  00000+0  20392-4 0  9994
2 36122 100.2063 285.4575 0007527 359.0755   1.0344 13.16374218620689
CARTOSAT-2B             
1 36795U 10035A   22319.69892838  .00000952  00000+0  13664-3 0  9997
2 36795  97.9424  18.2971 0014869 113.4749 246.8016 14.78708459666415
TISAT 1                 
1 36799U 10035E   22319.56056158  .00003686  00000+0  35376-3 0  9995
2 36799  98.1620 175.8927 0010843 326.1858  33.8668 14.93711194670311
FENGYUN 3B              
1 37214U 10059A   22319.53867226  .00000067  00000+0  59052-4 0  9995
2 37214  99.0932 328.2077 0021240 290.0814  69.8075 14.14274726622310
JUGNU                   
1 37839U 11058B   22319.42537473  .00000456  00000+0  10080-3 0  9993
2 37839  19.9625 339.7279 0019007  22.2056 108.4111 14.12833171573628
SRMSAT                  
1 37841U 11058D   22319.56415628  .00000418  00000+0  84305-4 0  9998
2 37841  19.9725  61.4815 0011721 204.1344 264.6319 14.10793890572606
M-CUBED & EXP-1 PRIME   
1 37855U 11061F   22319.53821904  .00010738  00000+0  43796-3 0  9996
2 37855 101.7174 159.1600 0144587 328.7041  30.5628 15.15686120604095
HORYU-2                 
1 38340U 12025D   22319.50288396  .00001669  00000+0  24358-3 0  9992
2 38340  98.1847  40.1070 0012497 103.4830 256.7773 14.77099242554535
METOP-B                 
1 38771U 12049A   22319.75950047  .00000103  00000+0  66909-4 0  9993
2 38771  98.7110  17.3625 0000599  60.0109  47.9772 14.21494111527229
SARAL                   
1 39086U 13009A   22319.51883952  .00000081  00000+0  46289-4 0  9998
2 39086  98.5463 142.9413 0001354 135.3215 224.8078 14.32046575508102
AAUSAT 3                
1 39087U 13009B   22319.52009002  .00000782  00000+0  28172-3 0  9994
2 39087  98.3888 155.2317 0012217 171.7916 188.3447 14.36335351509263
STRAND-1                
1 39090U 13009E   22319.50206684  .00000237  00000+0  97370-4 0  9993
2 39090  98.3941 153.6561 0009025 174.4879 185.6408 14.35368292509087
BRITE-AUSTRIA           
1 39091U 13009F   22319.48953309  .00000168  00000+0  73474-4 0  9996
2 39091  98.3963 152.8367 0010342 182.1090 178.0054 14.35328385509095
UNIBRITE                
1 39092U 13009G   22319.52478453  .00000156  00000+0  69565-4 0  9997
2 39092  98.3998 152.6620 0009333 176.5386 183.5866 14.35199890509052
SOMP                    
1 39134U 13015E   22319.29927512  .00025665  00000+0  76929-3 0  9993
2 39134  64.8594 285.2267 0031405 259.1139 100.6461 15.33954078529945
BEESAT-3                
1 39135U 13015F   22319.38360889  .00016540  00000+0  60258-3 0  9992
2 39135  64.8650 325.0432 0036789 262.1377  97.5577 15.27703696529565
BEESAT-2                
1 39136U 13015G   22319.40822130  .00014383  00000+0  55257-3 0  9994
2 39136  64.8741 334.1072 0024997 292.7857  67.0633 15.26373172529407
NEE-01 PEGASO           
1 39151U 13018B   22319.84098615  .00001584  00000+0  20899-3 0  9998
2 39151  97.9999  65.0894 0017736 122.5711 237.7217 14.81386110516091
CUBEBUG-1 (CAPITAN BETO)
1 39153U 13018D   22319.83412497  .00001687  00000+0  21814-3 0  9999
2 39153  98.0242  70.1072 0017588 117.4869 242.8134 14.82167990516250
